CAS-2T & KS-1Q          
1 41847U 16066G   21014.16192659  .00000068  00000-0  21413-4 0  9999
2 41847  98.6257  72.4733 0364693 320.9413  36.5946 14.38135757219708
NAYIF-1 (EO-88)         
1 42017U 17008BX  21014.18434733  .00002017  00000-0  78004-4 0  9994
2 42017  97.3367  84.4741 0004600 304.3938  55.6866 15.27362404217706
ZHUHAI-1 02 (CAS-4B)    
1 42759U 17034B   21014.19212164  .00000269  00000-0  29659-4 0  9998
2 42759  43.0184 309.0441 0011074 279.4360 224.6293 15.10040571197823
ZHUHAI-1 01 (CAS-4A)    
1 42761U 17034D   21014.19116292  .00000277  00000-0  30065-4 0  9998
2 42761  43.0199 308.2118 0011658 278.9973 223.2643 15.10121279197825
MAX VALIER SAT          
1 42778U 17036P   21013.67830810  .00001069  00000-0  48104-4 0  9992
2 42778  97.2782  67.2108 0012086  10.3974 349.7511 15.23134329197729
RADFXSAT (FOX-1B)       
1 43017U 17073E   21014.19182828  .00000583  00000-0  49721-4 0  9993
2 43017  97.7172 284.2258 0257354  83.5525 279.4920 14.79253643170314
FOX-1D (AO-92)          
1 43137U 18004AC  21014.19967258  .00001285  00000-0  54816-4 0  9990
2 43137  97.4248  89.7340 0009933  42.8120 317.3890 15.24713324167148
DIWATA-2B               
1 43678U 18084H   21014.24187776  .00000431  00000-0  48561-4 0  9995
2 43678  97.9041 138.9435 0009511 191.7857 168.3161 14.91699643120446
ES'HAIL 2               
1 43700U 18090A   21013.73800248  .00000138  00000-0  00000-0 0  9993
2 43700   0.0222  51.4729 0001617 295.4001  58.0243  1.00271369  7813
FOX-1CLIFF (AO-95)      
1 43770U 18099N   21014.19897881  .00000538  00000-0  54170-4 0  9994
2 43770  97.6843  87.6644 0013982 208.1161 151.9306 14.95166073115405
ITASAT 1                
1 43786U 18099AE  21013.74812223  .00000769  00000-0  74556-4 0  9994
2 43786  97.6864  87.7923 0014649 202.6725 157.3851 14.95483002115366
JY1SAT (JO-97)          
1 43803U 18099AX  21013.73574765  .00000659  00000-0  64245-4 0  9991
2 43803  97.6821  87.5544 0014710 203.0886 156.9676 14.95694097115366
PSAT2 (NO-104)          
1 44354U 19036R   21013.30783913  .00010085  00000-0  13782-3 0  9998
2 44354  28.5291  77.8016 0343724  39.8478 322.6832 15.08849197 85483
BRICSAT2 (NO-103)       
1 44355U 19036S   21013.78618583  .00019195  00000-0  23561-3 0  9998
2 44355  28.5277  50.2824 0302996  84.5888 278.9190 15.19469144 85806
JAISAT-1                
1 44419U 19038F   21013.80302663  .00001018  00000-0  60594-4 0  9996
2 44419  97.5681 339.3356 0022579 123.0182 237.3223 15.13292751 84408
DUCHIFAT-3              
1 44854U 19089C   21014.16348856  .00000423  00000-0  40389-4 0  9998
2 44854  36.9667 292.9312 0009311 323.3029  36.7073 14.99292325 59936
RS-44 & BREEZE-KM R/B   
1 44909U 19096E   21013.82648412  .00000017  00000-0  16072-4 0  9991
2 44909  82.5195 215.5295 0218362  94.6410 267.9666 12.79708213 49097
ORBITAL FACTORY 2 (OF-2)
1 45113U 19071C   21013.41020512  .00002799  00000-0  93376-4 0  9993
2 45113  51.6435  68.5709 0012921  93.2975 266.9486 15.34581327 53351
HUSKYSAT-1              
1 45119U 19071J   21013.42903500  .00002611  00000-0  87544-4 0  9990
2 45119  51.6430  67.9458 0012288  90.0415 270.1975 15.34701051 53354
BY70-2                  
1 45857U 20042B   21014.09758523  .00000912  00000-0  13790-3 0  9999
2 45857  97.9987  91.4126 0010381 357.9836   2.1339 14.76618513 28760
SALSAT                  
1 46495U 20068K   21013.91363496  .00000303  00000-0  26887-4 0  9993
2 46495  97.6790 312.4657 0015828 235.4042 124.5696 15.03309992 16113
BY70-3                  
1 46839U 20079N   21014.21956807  .00002457  00000-0  80302-4 0  9999
2 46839  97.2591  91.1240 0008500  49.4178  35.0073 15.32639378 10576
OSCAR 7 (AO-7)          
1 07530U 74089B   21014.22342929 -.00000052  00000-0 -41479-4 0  9992
2 07530 101.8331 349.0234 0012158 319.7838  51.2672 12.53646904112642
